{
  "type": "FeatureCollection",
  "features": [
    {
      "type": "Feature",
      "properties": {
        "norad_id": 39160,
        "name": "VNREDSAT 1",
        "group": "resource",
        "lat": -4.5718402509833895,
        "lon": 40.95678892673542,
        "alt_km": 680.7560396781264,
        "timestamp": "2025-12-10T23:33:12.483757+00:00",
        "meta_object_name": "VNREDSAT 1",
        "meta_object_id": "2013-021B",
        "meta_epoch": "2025-12-10T15:22:40.735200",
        "meta_mean_motion": 14.64917815,
        "meta_eccentricity": 0.00013193,
        "meta_inclination": 97.9371,
        "meta_ra_of_asc_node": 39.9889,
        "meta_arg_of_pericenter": 76.8661,
        "meta_mean_anomaly": 283.269,
        "meta_ephemeris_type": 0,
        "meta_classification_type": "U",
        "meta_norad_cat_id": 39160,
        "meta_element_set_no": 999,
        "meta_rev_at_epoch": 67268,
        "meta_bstar": 0.0002017378,
        "meta_mean_motion_dot": 1.033e-05,
        "meta_mean_motion_ddot": 0,
        "tle_line1": "1 39160U 13021B   25344.64074925  .00001033  00000+0  20174-3 0  9994",
        "tle_line2": "2 39160  97.9371  39.9889 0001319  76.8661 283.2690 14.64917815672686"
      },
      "geometry": {
        "type": "Point",
        "coordinates": [
          40.95678892673542,
          -4.5718402509833895
        ]
      }
    },
    {
      "type": "Feature",
      "properties": {
        "norad_id": 39227,
        "name": "ARIRANG-5 (KOMPSAT-5)",
        "group": "resource",
        "lat": -3.9022272063532144,
        "lon": -11.212174563728333,
        "alt_km": 558.1028536381336,
        "timestamp": "2025-12-10T23:33:12.483766+00:00",
        "meta_object_name": "ARIRANG-5 (KOMPSAT-5)",
        "meta_object_id": "2013-042A",
        "meta_epoch": "2025-12-10T14:45:29.466432",
        "meta_mean_motion": 15.0448903,
        "meta_eccentricity": 0.00037881,
        "meta_inclination": 97.6141,
        "meta_ra_of_asc_node": 168.9496,
        "meta_arg_of_pericenter": 60.8631,
        "meta_mean_anomaly": 299.2974,
        "meta_ephemeris_type": 0,
        "meta_classification_type": "U",
        "meta_norad_cat_id": 39227,
        "meta_element_set_no": 999,
        "meta_rev_at_epoch": 67550,
        "meta_bstar": 0.00015345304,
        "meta_mean_motion_dot": 2.087e-05,
        "meta_mean_motion_ddot": 0,
        "tle_line1": "1 39227U 13042A   25344.61492438  .00002087  00000+0  15345-3 0  9995",
        "tle_line2": "2 39227  97.6141 168.9496 0003788  60.8631 299.2974 15.04489030675505"
      },
      "geometry": {
        "type": "Point",
        "coordinates": [
          -11.212174563728333,
          -3.9022272063532144
        ]
      }
    },
    {
      "type": "Feature",
      "properties": {
        "norad_id": 39418,
        "name": "SKYSAT-A",
        "group": "resource",
        "lat": 27.847330426493336,
        "lon": -140.81407103565664,
        "alt_km": 530.5753031127524,
        "timestamp": "2025-12-10T23:33:12.483776+00:00",
        "meta_object_name": "SKYSAT-A",
        "meta_object_id": "2013-066C",
        "meta_epoch": "2025-12-10T14:56:18.183552",
        "meta_mean_motion": 15.11578975,
        "meta_eccentricity": 0.00206586,
        "meta_inclination": 97.4109,
        "meta_ra_of_asc_node": 34.8949,
        "meta_arg_of_pericenter": 244.4133,
        "meta_mean_anomaly": 115.4962,
        "meta_ephemeris_type": 0,
        "meta_classification_type": "U",
        "meta_norad_cat_id": 39418,
        "meta_element_set_no": 999,
        "meta_rev_at_epoch": 65998,
        "meta_bstar": 0.00037028693,
        "meta_mean_motion_dot": 6.253e-05,
        "meta_mean_motion_ddot": 0,
        "tle_line1": "1 39418U 13066C   25344.62243268  .00006253  00000+0  37029-3 0  9991",
        "tle_line2": "2 39418  97.4109  34.8949 0020658 244.4133 115.4962 15.11578975659980"
      },
      "geometry": {
        "type": "Point",
        "coordinates": [
          -140.81407103565664,
          27.847330426493336
        ]
      }
    },
    {
      "type": "Feature",
      "properties": {
        "norad_id": 39419,
        "name": "DUBAISAT-2",
        "group": "resource",
        "lat": -45.00940009135837,
        "lon": -17.04069298225112,
        "alt_km": 540.7224629182738,
        "timestamp": "2025-12-10T23:33:12.483785+00:00",
        "meta_object_name": "DUBAISAT-2",
        "meta_object_id": "2013-066D",
        "meta_epoch": "2025-12-10T14:12:05.014944",
        "meta_mean_motion": 15.08324869,
        "meta_eccentricity": 0.00108979,
        "meta_inclination": 97.4449,
        "meta_ra_of_asc_node": 335.0654,
        "meta_arg_of_pericenter": 328.8322,
        "meta_mean_anomaly": 31.2259,
        "meta_ephemeris_type": 0,
        "meta_classification_type": "U",
        "meta_norad_cat_id": 39419,
        "meta_element_set_no": 999,
        "meta_rev_at_epoch": 65794,
        "meta_bstar": 0.00056214215,
        "meta_mean_motion_dot": 8.679e-05,
        "meta_mean_motion_ddot": 0,
        "tle_line1": "1 39419U 13066D   25344.59172471  .00008679  00000+0  56214-3 0  9996",
        "tle_line2": "2 39419  97.4449 335.0654 0010897 328.8322  31.2259 15.08324869657943"
      },
      "geometry": {
        "type": "Point",
        "coordinates": [
          -17.04069298225112,
          -45.00940009135837
        ]
      }
    },
    {
      "type": "Feature",
      "properties": {
        "norad_id": 39574,
        "name": "GPM-CORE",
        "group": "resource",
        "lat": -33.82891183368823,
        "lon": 56.812534518295664,
        "alt_km": 430.78008034582217,
        "timestamp": "2025-12-10T23:33:12.483794+00:00",
        "meta_object_name": "GPM-CORE",
        "meta_object_id": "2014-009C",
        "meta_epoch": "2025-12-10T14:50:53.742912",
        "meta_mean_motion": 15.4548549,
        "meta_eccentricity": 0.00105078,
        "meta_inclination": 64.9737,
        "meta_ra_of_asc_node": 219.7819,
        "meta_arg_of_pericenter": 270.3617,
        "meta_mean_anomaly": 89.632,
        "meta_ephemeris_type": 0,
        "meta_classification_type": "U",
        "meta_norad_cat_id": 39574,
        "meta_element_set_no": 999,
        "meta_rev_at_epoch": 66868,
        "meta_bstar": 0.00037434763,
        "meta_mean_motion_dot": 0.00017872,
        "meta_mean_motion_ddot": 0,
        "tle_line1": "1 39574U 14009C   25344.61867758  .00017872  00000+0  37435-3 0  9997",
        "tle_line2": "2 39574  64.9737 219.7819 0010507 270.3617  89.6320 15.45485490668689"
      },
      "geometry": {
        "type": "Point",
        "coordinates": [
          56.812534518295664,
          -33.82891183368823
        ]
      }
    },
    {
      "type": "Feature",
      "properties": {
        "norad_id": 39634,
        "name": "SENTINEL-1A",
        "group": "resource",
        "lat": -70.90025291923628,
        "lon": 145.7033618093544,
        "alt_km": 703.930265097858,
        "timestamp": "2025-12-10T23:33:12.483803+00:00",
        "meta_object_name": "SENTINEL-1A",
        "meta_object_id": "2014-016A",
        "meta_epoch": "2025-12-10T12:31:29.554176",
        "meta_mean_motion": 14.59200789,
        "meta_eccentricity": 0.00012779,
        "meta_inclination": 98.1803,
        "meta_ra_of_asc_node": 349.7957,
        "meta_arg_of_pericenter": 82.8356,
        "meta_mean_anomaly": 277.2989,
        "meta_ephemeris_type": 0,
        "meta_classification_type": "U",
        "meta_norad_cat_id": 39634,
        "meta_element_set_no": 999,
        "meta_rev_at_epoch": 62250,
        "meta_bstar": 4.4304083e-05,
        "meta_mean_motion_dot": 1.63e-06,
        "meta_mean_motion_ddot": 0,
        "tle_line1": "1 39634U 14016A   25344.52186984  .00000163  00000+0  44304-4 0  9996",
        "tle_line2": "2 39634  98.1803 349.7957 0001277  82.8356 277.2989 14.59200789622503"
      },
      "geometry": {
        "type": "Point",
        "coordinates": [
          145.7033618093544,
          -70.90025291923628
        ]
      }
    },
    {
      "type": "Feature",
      "properties": {
        "norad_id": 39731,
        "name": "KAZEOSAT 1",
        "group": "resource",
        "lat": -24.3787908318412,
        "lon": 60.74090938491524,
        "alt_km": 757.57099832518,
        "timestamp": "2025-12-10T23:33:12.483813+00:00",
        "meta_object_name": "KAZEOSAT 1",
        "meta_object_id": "2014-024A",
        "meta_epoch": "2025-12-10T15:20:28.680576",
        "meta_mean_motion": 14.42061365,
        "meta_eccentricity": 0.0001098,
        "meta_inclination": 98.343,
        "meta_ra_of_asc_node": 56.5934,
        "meta_arg_of_pericenter": 93.6166,
        "meta_mean_anomaly": 266.515,
        "meta_ephemeris_type": 0,
        "meta_classification_type": "U",
        "meta_norad_cat_id": 39731,
        "meta_element_set_no": 999,
        "meta_rev_at_epoch": 61138,
        "meta_bstar": 0.00018678706,
        "meta_mean_motion_dot": 5.71e-06,
        "meta_mean_motion_ddot": 0,
        "tle_line1": "1 39731U 14024A   25344.63922084  .00000571  00000+0  18679-3 0  9992",
        "tle_line2": "2 39731  98.3430  56.5934 0001098  93.6166 266.5150 14.42061365611389"
      },
      "geometry": {
        "type": "Point",
        "coordinates": [
          60.74090938491524,
          -24.3787908318412
        ]
      }
    }
  ]
}